COMMENT,ORIGINATOR,NORAD_CAT_ID,OBJECT_NAME,OBJECT_TYPE,CLASSIFICATION_TYPE,INTLDES,EPOCH,EPOCH_MICROSECONDS,MEAN_MOTION,ECCENTRICITY,INCLINATION,RA_OF_ASC_NODE,ARG_OF_PERICENTER,MEAN_ANOMALY,EPHEMERIS_TYPE,ELEMENT_SET_NO,REV_AT_EPOCH,BSTAR,MEAN_MOTION_DOT,MEAN_MOTION_DDOT,FILE,TLE_LINE0,TLE_LINE1,TLE_LINE2,OBJECT_ID,OBJECT_NUMBER,SEMIMAJOR_AXIS,PERIOD,APOGEE,PERIGEE,DECAYED
GENERATED VIA SPACETRACK.ORG API,18 SPCS,44336,ARIANE 5 DEB (SYLDA),DEBRIS,U,19034D,2023-02-02 09:44:21,351552,3.04987373,0.6699798,5.752,148.0519,353.9549,0.7915,0,999,3401,0.011151,0.00062408,0,3768488,0 ARIANE 5 DEB (SYLDA),1 44336U 19034D   23033.40580268  .00062408  00000-0  11151-1 0  9991,2 44336   5.7520 148.0519 6699798 353.9549   0.7915  3.04987373 34015,2019-034D,44336,20085.405,472.151,27164.086,250.455,0
GENERATED VIA SPACETRACK.ORG API,18 SPCS,44336,ARIANE 5 DEB (SYLDA),DEBRIS,U,19034D,2023-02-02 17:36:24,944256,3.05020444,0.6699591,5.7521,147.8556,354.3459,0.7343,0,999,3402,0.0085252,0.00047691,0,3769422,0 ARIANE 5 DEB (SYLDA),1 44336U 19034D   23033.73362204  .00047691  00000-0  85252-2 0  9996,2 44336   5.7521 147.8556 6699591 354.3459   0.7343  3.05020444 34024,2019-034D,44336,20083.954,472.1,27161.246,250.391,0
GENERATED VIA SPACETRACK.ORG API,18 SPCS,44336,ARIANE 5 DEB (SYLDA),DEBRIS,U,19034D,2023-02-03 01:28:25,327200,3.05055179,0.6699304,5.7523,147.6588,354.7351,0.6782,0,999,3403,0.0098529,0.00055098,0,3769989,0 ARIANE 5 DEB (SYLDA),1 44336U 19034D   23034.06140425  .00055098  00000-0  98529-2 0  9993,2 44336   5.7523 147.6588 6699304 354.7351   0.6782  3.05055179 34036,2019-034D,44336,20082.429,472.046,27158.124,250.464,0
GENERATED VIA SPACETRACK.ORG API,18 SPCS,44336,ARIANE 5 DEB (SYLDA),DEBRIS,U,19034D,2023-02-03 01:28:25,327200,3.05055179,0.6699304,5.7523,147.6588,354.7351,0.6782,0,999,3405,0.0098529,0.00055098,0,3770323,0 ARIANE 5 DEB (SYLDA),1 44336U 19034D   23034.06140425  .00055098  00000-0  98529-2 0  9993,2 44336   5.7523 147.6588 6699304 354.7351   0.6782  3.05055179 34058,2019-034D,44336,20082.429,472.046,27158.124,250.464,0
GENERATED VIA SPACETRACK.ORG API,18 SPCS,44336,ARIANE 5 DEB (SYLDA),DEBRIS,U,19034D,2023-02-03 09:20:22,206624,3.05092979,0.6699051,5.752,147.4595,355.1267,0.6222,0,999,3406,0.0088645,0.00049581,0,3770748,0 ARIANE 5 DEB (SYLDA),1 44336U 19034D   23034.38914591  .00049581  00000-0  88645-2 0  9999,2 44336   5.7520 147.4595 6699051 355.1267   0.6222  3.05092979 34060,2019-034D,44336,20080.77,471.987,27154.846,250.425,0
GENERATED VIA SPACETRACK.ORG API,18 SPCS,44336,ARIANE 5 DEB (SYLDA),DEBRIS,U,19034D,2023-02-04 01:04:06,281760,3.05164017,0.6698387,5.753,147.0666,355.9046,0.5122,0,999,3408,0.010708,0.00059625,0,3771952,0 ARIANE 5 DEB (SYLDA),1 44336U 19034D   23035.04451715  .00059625  00000-0  10708-1 0  9991,2 44336   5.7530 147.0666 6698387 355.9046   0.5122  3.05164017 34083,2019-034D,44336,20077.654,471.877,27148.308,250.729,0
GENERATED VIA SPACETRACK.ORG API,18 SPCS,44336,ARIANE 5 DEB (SYLDA),DEBRIS,U,19034D,2023-02-04 01:04:06,281760,3.05164017,0.6698387,5.753,147.0666,355.9046,0.5122,0,999,3406,0.010708,0.00059625,0,3772099,0 ARIANE 5 DEB (SYLDA),1 44336U 19034D   23035.04451715  .00059625  00000-0  10708-1 0  9991,2 44336   5.7530 147.0666 6698387 355.9046   0.5122  3.05164017 34061,2019-034D,44336,20077.654,471.877,27148.308,250.729,0
GENERATED VIA SPACETRACK.ORG API,18 SPCS,44336,ARIANE 5 DEB (SYLDA),DEBRIS,U,19034D,2023-02-04 16:47:36,342816,3.05239879,0.6697776,5.7538,146.6734,356.6826,0.4033,0,999,3408,0.009304,0.0005166,0,3772666,0 ARIANE 5 DEB (SYLDA),1 44336U 19034D   23035.69972619  .00051660  00000-0  93040-2 0  9995,2 44336   5.7538 146.6734 6697776 356.6826   0.4033  3.05239879 34086,2019-034D,44336,20074.327,471.76,27141.526,250.857,0
GENERATED VIA SPACETRACK.ORG API,18 SPCS,44336,ARIANE 5 DEB (SYLDA),DEBRIS,U,19034D,2023-02-05 08:30:52,494336,3.05313026,0.6697207,5.7548,146.2804,357.4566,0.2966,0,999,3412,0.0096868,0.00053756,0,3773728,0 ARIANE 5 DEB (SYLDA),1 44336U 19034D   23036.35477424  .00053756  00000-0  96868-2 0  9992,2 44336   5.7548 146.2804 6697207 357.4566   0.2966  3.05313026 34125,2019-034D,44336,20071.121,471.647,27135.03,250.941,0
GENERATED VIA SPACETRACK.ORG API,18 SPCS,44336,ARIANE 5 DEB (SYLDA),DEBRIS,U,19034D,2023-02-05 08:30:52,516800,3.05317817,0.6697243,5.7545,146.2789,357.4607,0.2956,0,999,3410,0.0092618,0.00051533,0,3773855,0 ARIANE 5 DEB (SYLDA),1 44336U 19034D   23036.35477450  .00051533  00000-0  92618-2 0  9991,2 44336   5.7545 146.2789 6697243 357.4607   0.2956  3.05317817 34109,2019-034D,44336,20070.911,471.64,27134.752,250.799,0
GENERATED VIA SPACETRACK.ORG API,18 SPCS,44336,ARIANE 5 DEB (SYLDA),DEBRIS,U,19034D,2023-02-05 08:30:52,516800,3.05317817,0.6697243,5.7545,146.2789,357.4607,0.2956,0,999,3412,0.0092618,0.00051533,0,3774172,0 ARIANE 5 DEB (SYLDA),1 44336U 19034D   23036.35477450  .00051533  00000-0  92618-2 0  9991,2 44336   5.7545 146.2789 6697243 357.4607   0.2956  3.05317817 34121,2019-034D,44336,20070.911,471.64,27134.752,250.799,0
GENERATED VIA SPACETRACK.ORG API,18 SPCS,44336,ARIANE 5 DEB (SYLDA),DEBRIS,U,19034D,2023-02-06 08:05:20,268096,3.05434798,0.6696333,5.755,145.6856,358.6291,0.1359,0,999,3413,0.011869,0.00066051,0,3774847,0 ARIANE 5 DEB (SYLDA),1 44336U 19034D   23037.33704014  .00066051  00000-0  11869-1 0  9998,2 44336   5.7550 145.6856 6696333 358.6291   0.1359  3.05434798 34131,2019-034D,44336,20065.785,471.459,27124.369,250.932,0
GENERATED VIA SPACETRACK.ORG API,18 SPCS,44336,ARIANE 5 DEB (SYLDA),DEBRIS,U,19034D,2023-02-06 08:05:20,268096,3.05434798,0.6696333,5.755,145.6856,358.6291,0.1359,0,999,3415,0.011869,0.00066051,0,3775254,0 ARIANE 5 DEB (SYLDA),1 44336U 19034D   23037.33704014  .00066051  00000-0  11869-1 0  9998,2 44336   5.7550 145.6856 6696333 358.6291   0.1359  3.05434798 34153,2019-034D,44336,20065.785,471.459,27124.369,250.932,0
GENERATED VIA SPACETRACK.ORG API,18 SPCS,44336,ARIANE 5 DEB (SYLDA),DEBRIS,U,19034D,2023-02-06 23:48:00,113472,3.05521556,0.6695734,5.7554,145.2892,359.4136,0.0285,0,999,3417,0.013039,0.00072747,0,3777208,0 ARIANE 5 DEB (SYLDA),1 44336U 19034D   23037.99166798  .00072747  00000-0  13039-1 0  9991,2 44336   5.7554 145.2892 6695734 359.4136   0.0285  3.05521556 34172,2019-034D,44336,20061.987,471.325,27116.824,250.879,0
GENERATED VIA SPACETRACK.ORG API,18 SPCS,44336,ARIANE 5 DEB (SYLDA),DEBRIS,U,19034D,2023-02-06 23:48:00,113472,3.05521556,0.6695734,5.7554,145.2892,359.4136,0.0285,0,999,3415,0.013039,0.00072747,0,3777469,0 ARIANE 5 DEB (SYLDA),1 44336U 19034D   23037.99166798  .00072747  00000-0  13039-1 0  9991,2 44336   5.7554 145.2892 6695734 359.4136   0.0285  3.05521556 34150,2019-034D,44336,20061.987,471.325,27116.824,250.879,0
GENERATED VIA SPACETRACK.ORG API,18 SPCS,44336,ARIANE 5 DEB (SYLDA),DEBRIS,U,19034D,2023-02-07 15:30:22,411872,3.05618528,0.6695027,5.7563,144.8933,0.194,359.922,0,999,3419,0.012186,0.00068036,0,3777976,0 ARIANE 5 DEB (SYLDA),1 44336U 19034D   23038.64609273  .00068036  00000-0  12186-1 0  9992,2 44336   5.7563 144.8933 6695027   0.1940 359.9220  3.05618528 34194,2019-034D,44336,20057.743,471.176,27108.321,250.895,0
GENERATED VIA SPACETRACK.ORG API,18 SPCS,44336,ARIANE 5 DEB (SYLDA),DEBRIS,U,19034D,2023-02-07 15:30:22,411872,3.05618528,0.6695027,5.7563,144.8933,0.194,359.922,0,999,3417,0.012186,0.00068036,0,3778126,0 ARIANE 5 DEB (SYLDA),1 44336U 19034D   23038.64609273  .00068036  00000-0  12186-1 0  9992,2 44336   5.7563 144.8933 6695027   0.1940 359.9220  3.05618528 34172,2019-034D,44336,20057.743,471.176,27108.321,250.895,0
GENERATED VIA SPACETRACK.ORG API,18 SPCS,44336,ARIANE 5 DEB (SYLDA),DEBRIS,U,19034D,2023-02-07 23:21:26,782560,3.05670529,0.6694658,5.7567,144.6949,0.5846,359.8685,0,999,3418,0.01327,0.00074167,0,3778905,0 ARIANE 5 DEB (SYLDA),1 44336U 19034D   23038.97322665  .00074167  00000-0  13270-1 0  9992,2 44336   5.7567 144.6949 6694658   0.5846 359.8685  3.05670529 34183,2019-034D,44336,20055.468,471.095,27103.783,250.883,0
GENERATED VIA SPACETRACK.ORG API,18 SPCS,44336,ARIANE 5 DEB (SYLDA),DEBRIS,U,19034D,2023-02-07 23:21:26,782560,3.05670529,0.6694658,5.7567,144.6949,0.5846,359.8685,0,999,3420,0.01327,0.00074167,0,3780324,0 ARIANE 5 DEB (SYLDA),1 44336U 19034D   23038.97322665  .00074167  00000-0  13270-1 0  9992,2 44336   5.7567 144.6949 6694658   0.5846 359.8685  3.05670529 34206,2019-034D,44336,20055.468,471.095,27103.783,250.883,0
GENERATED VIA SPACETRACK.ORG API,18 SPCS,44336,ARIANE 5 DEB (SYLDA),DEBRIS,U,19034D,2023-02-08 07:12:26,212896,3.05713155,0.669424,5.7572,144.4966,0.9729,359.8153,0,999,3419,0.011342,0.00063123,0,3780377,0 ARIANE 5 DEB (SYLDA),1 44336U 19034D   23039.30030339  .00063123  00000-0  11342-1 0  9992,2 44336   5.7572 144.4966 6694240   0.9729 359.8153  3.05713155 34191,2019-034D,44336,20053.603,471.03,27099.832,251.105,0
GENERATED VIA SPACETRACK.ORG API,18 SPCS,44336,ARIANE 5 DEB (SYLDA),DEBRIS,U,19034D,2023-02-08 15:03:20,213856,3.05772951,0.6693806,5.7568,144.2957,1.3629,359.7614,0,999,3422,0.013369,0.00074465,0,3780893,0 ARIANE 5 DEB (SYLDA),1 44336U 19034D   23039.62731729  .00074465  00000-0  13369-1 0  9990,2 44336   5.7568 144.2957 6693806   1.3629 359.7614  3.05772951 34229,2019-034D,44336,20050.989,470.938,27094.597,251.111,0
GENERATED VIA SPACETRACK.ORG API,18 SPCS,44336,ARIANE 5 DEB (SYLDA),DEBRIS,U,19034D,2023-02-08 15:03:20,213856,3.05772951,0.6693806,5.7568,144.2957,1.3629,359.7614,0,999,3420,0.013369,0.00074465,0,3781268,0 ARIANE 5 DEB (SYLDA),1 44336U 19034D   23039.62731729  .00074465  00000-0  13369-1 0  9990,2 44336   5.7568 144.2957 6693806   1.3629 359.7614  3.05772951 34207,2019-034D,44336,20050.989,470.938,27094.597,251.111,0
